CCSDS_OMM_VERS = 2.0
CREATION_DATE  = 
ORIGINATOR     = 

OBJECT_NAME    = ALOS-2
OBJECT_ID      = 2014-029A
CENTER_NAME    = EARTH
REF_FRAME      = TEME
TIME_SYSTEM    = UTC
MEAN_ELEMENT_THEORY = SGP/SGP4

EPOCH          = 2026-03-26T21:32:17.551104
MEAN_MOTION    = 14.79438738
ECCENTRICITY   = .0001902
INCLINATION    = 97.9185
RA_OF_ASC_NODE = 184.2439
ARG_OF_PERICENTER = 104.7492
MEAN_ANOMALY   = 255.3931

EPHEMERIS_TYPE = 0
CLASSIFICATION_TYPE = U
NORAD_CAT_ID   = 39766
ELEMENT_SET_NO = 999
REV_AT_EPOCH   = 63941
BSTAR          = .24204E-3
MEAN_MOTION_DOT = .1755E-4
MEAN_MOTION_DDOT = 0

CCSDS_OMM_VERS = 2.0
CREATION_DATE  = 
ORIGINATOR     = 

OBJECT_NAME    = YAOGAN-29
OBJECT_ID      = 2015-069A
CENTER_NAME    = EARTH
REF_FRAME      = TEME
TIME_SYSTEM    = UTC
MEAN_ELEMENT_THEORY = SGP/SGP4

EPOCH          = 2026-03-26T20:45:20.723616
MEAN_MOTION    = 14.83013006
ECCENTRICITY   = .0000678
INCLINATION    = 98.0125
RA_OF_ASC_NODE = 114.3389
ARG_OF_PERICENTER = 9.9869
MEAN_ANOMALY   = 350.1358

EPHEMERIS_TYPE = 0
CLASSIFICATION_TYPE = U
NORAD_CAT_ID   = 41038
ELEMENT_SET_NO = 999
REV_AT_EPOCH   = 55842
BSTAR          = .29619E-4
MEAN_MOTION_DOT = .187E-5
MEAN_MOTION_DDOT = 0

CCSDS_OMM_VERS = 2.0
CREATION_DATE  = 
ORIGINATOR     = 

OBJECT_NAME    = ASTRO-H (HITOMI)
OBJECT_ID      = 2016-012A
CENTER_NAME    = EARTH
REF_FRAME      = TEME
TIME_SYSTEM    = UTC
MEAN_ELEMENT_THEORY = SGP/SGP4

EPOCH          = 2026-03-26T16:30:41.364864
MEAN_MOTION    = 15.10108075
ECCENTRICITY   = .000961
INCLINATION    = 30.9987
RA_OF_ASC_NODE = 246.8445
ARG_OF_PERICENTER = 142.6618
MEAN_ANOMALY   = 217.4689

EPHEMERIS_TYPE = 0
CLASSIFICATION_TYPE = U
NORAD_CAT_ID   = 41337
ELEMENT_SET_NO = 999
REV_AT_EPOCH   = 55480
BSTAR          = .17057E-3
MEAN_MOTION_DOT = .2946E-4
MEAN_MOTION_DDOT = 0

CCSDS_OMM_VERS = 2.0
CREATION_DATE  = 
ORIGINATOR     = 

OBJECT_NAME    = HXMT (HUIYAN)
OBJECT_ID      = 2017-034A
CENTER_NAME    = EARTH
REF_FRAME      = TEME
TIME_SYSTEM    = UTC
MEAN_ELEMENT_THEORY = SGP/SGP4

EPOCH          = 2026-03-26T21:22:02.921376
MEAN_MOTION    = 15.17677539
ECCENTRICITY   = .003215
INCLINATION    = 43.0144
RA_OF_ASC_NODE = 281.0293
ARG_OF_PERICENTER = 340.9800
MEAN_ANOMALY   = 18.9846

EPHEMERIS_TYPE = 0
CLASSIFICATION_TYPE = U
NORAD_CAT_ID   = 42758
ELEMENT_SET_NO = 999
REV_AT_EPOCH   = 48515
BSTAR          = .262E-3
MEAN_MOTION_DOT = .5205E-4
MEAN_MOTION_DDOT = 0

CCSDS_OMM_VERS = 2.0
CREATION_DATE  = 
ORIGINATOR     = 

OBJECT_NAME    = SAOCOM 1A
OBJECT_ID      = 2018-076A
CENTER_NAME    = EARTH
REF_FRAME      = TEME
TIME_SYSTEM    = UTC
MEAN_ELEMENT_THEORY = SGP/SGP4

EPOCH          = 2026-03-26T20:10:35.120064
MEAN_MOTION    = 14.82158822
ECCENTRICITY   = .0001487
INCLINATION    = 97.8907
RA_OF_ASC_NODE = 273.7712
ARG_OF_PERICENTER = 84.5804
MEAN_ANOMALY   = 275.5579

EPHEMERIS_TYPE = 0
CLASSIFICATION_TYPE = U
NORAD_CAT_ID   = 43641
ELEMENT_SET_NO = 999
REV_AT_EPOCH   = 40390
BSTAR          = .54208E-4
MEAN_MOTION_DOT = .379E-5
MEAN_MOTION_DDOT = 0

CCSDS_OMM_VERS = 2.0
CREATION_DATE  = 
ORIGINATOR     = 

OBJECT_NAME    = H-2A R/B
OBJECT_ID      = 2018-084L
CENTER_NAME    = EARTH
REF_FRAME      = TEME
TIME_SYSTEM    = UTC
MEAN_ELEMENT_THEORY = SGP/SGP4

EPOCH          = 2026-03-26T13:01:47.196768
MEAN_MOTION    = 15.42046506
ECCENTRICITY   = .0023967
INCLINATION    = 98.8711
RA_OF_ASC_NODE = 306.5404
ARG_OF_PERICENTER = 326.7333
MEAN_ANOMALY   = 33.2402

EPHEMERIS_TYPE = 0
CLASSIFICATION_TYPE = U
NORAD_CAT_ID   = 43682
ELEMENT_SET_NO = 999
REV_AT_EPOCH   = 40837
BSTAR          = .44617E-3
MEAN_MOTION_DOT = .19154E-3
MEAN_MOTION_DDOT = 0

CCSDS_OMM_VERS = 2.0
CREATION_DATE  = 
ORIGINATOR     = 

OBJECT_NAME    = SAOCOM 1B
OBJECT_ID      = 2020-059A
CENTER_NAME    = EARTH
REF_FRAME      = TEME
TIME_SYSTEM    = UTC
MEAN_ELEMENT_THEORY = SGP/SGP4

EPOCH          = 2026-03-26T20:55:33.674592
MEAN_MOTION    = 14.82154707
ECCENTRICITY   = .0001507
INCLINATION    = 97.8907
RA_OF_ASC_NODE = 272.8998
ARG_OF_PERICENTER = 87.2408
MEAN_ANOMALY   = 272.8977

EPHEMERIS_TYPE = 0
CLASSIFICATION_TYPE = U
NORAD_CAT_ID   = 46265
ELEMENT_SET_NO = 999
REV_AT_EPOCH   = 30129
BSTAR          = .11376E-3
MEAN_MOTION_DOT = .853E-5
MEAN_MOTION_DDOT = 0

CCSDS_OMM_VERS = 2.0
CREATION_DATE  = 
ORIGINATOR     = 

OBJECT_NAME    = CSS (TIANHE)
OBJECT_ID      = 2021-035A
CENTER_NAME    = EARTH
REF_FRAME      = TEME
TIME_SYSTEM    = UTC
MEAN_ELEMENT_THEORY = SGP/SGP4

EPOCH          = 2026-03-26T11:26:24.884160
MEAN_MOTION    = 15.61516360
ECCENTRICITY   = .0004375
INCLINATION    = 41.4668
RA_OF_ASC_NODE = 105.9518
ARG_OF_PERICENTER = 27.8564
MEAN_ANOMALY   = 332.2509

EPHEMERIS_TYPE = 0
CLASSIFICATION_TYPE = U
NORAD_CAT_ID   = 48274
ELEMENT_SET_NO = 999
REV_AT_EPOCH   = 28023
BSTAR          = .25348E-3
MEAN_MOTION_DOT = .22078E-3
MEAN_MOTION_DDOT = 0

CCSDS_OMM_VERS = 2.0
CREATION_DATE  = 
ORIGINATOR     = 

OBJECT_NAME    = COSMOS 2550
OBJECT_ID      = 2021-056A
CENTER_NAME    = EARTH
REF_FRAME      = TEME
TIME_SYSTEM    = UTC
MEAN_ELEMENT_THEORY = SGP/SGP4

EPOCH          = 2026-03-26T22:15:57.631104
MEAN_MOTION    = 15.33832531
ECCENTRICITY   = .0008321
INCLINATION    = 67.1433
RA_OF_ASC_NODE = 348.7393
ARG_OF_PERICENTER = 269.2428
MEAN_ANOMALY   = 90.7773

EPHEMERIS_TYPE = 0
CLASSIFICATION_TYPE = U
NORAD_CAT_ID   = 48865
ELEMENT_SET_NO = 999
REV_AT_EPOCH   = 26610
BSTAR          = .72638E-7
MEAN_MOTION_DOT = -.189E-5
MEAN_MOTION_DDOT = 0

CCSDS_OMM_VERS = 2.0
CREATION_DATE  = 
ORIGINATOR     = 

OBJECT_NAME    = CZ-2C R/B
OBJECT_ID      = 2022-058K
CENTER_NAME    = EARTH
REF_FRAME      = TEME
TIME_SYSTEM    = UTC
MEAN_ELEMENT_THEORY = SGP/SGP4

EPOCH          = 2026-03-26T19:12:08.863776
MEAN_MOTION    = 15.55455273
ECCENTRICITY   = .0041479
INCLINATION    = 50.1867
RA_OF_ASC_NODE = 230.1901
ARG_OF_PERICENTER = 274.0304
MEAN_ANOMALY   = 85.5926

EPHEMERIS_TYPE = 0
CLASSIFICATION_TYPE = U
NORAD_CAT_ID   = 52794
ELEMENT_SET_NO = 999
REV_AT_EPOCH   = 21279
BSTAR          = .50425E-3
MEAN_MOTION_DOT = .3612E-3
MEAN_MOTION_DDOT = 0

CCSDS_OMM_VERS = 2.0
CREATION_DATE  = 
ORIGINATOR     = 

OBJECT_NAME    = CZ-2C R/B
OBJECT_ID      = 2022-132E
CENTER_NAME    = EARTH
REF_FRAME      = TEME
TIME_SYSTEM    = UTC
MEAN_ELEMENT_THEORY = SGP/SGP4

EPOCH          = 2026-03-26T22:01:39.837216
MEAN_MOTION    = 15.63457330
ECCENTRICITY   = .0018134
INCLINATION    = 97.2962
RA_OF_ASC_NODE = 89.7787
ARG_OF_PERICENTER = 35.3831
MEAN_ANOMALY   = 324.8627

EPHEMERIS_TYPE = 0
CLASSIFICATION_TYPE = U
NORAD_CAT_ID   = 54039
ELEMENT_SET_NO = 999
REV_AT_EPOCH   = 19306
BSTAR          = .56408E-3
MEAN_MOTION_DOT = .52608E-3
MEAN_MOTION_DDOT = 0

CCSDS_OMM_VERS = 2.0
CREATION_DATE  = 
ORIGINATOR     = 

OBJECT_NAME    = GSLV R/B
OBJECT_ID      = 2022-138AN
CENTER_NAME    = EARTH
REF_FRAME      = TEME
TIME_SYSTEM    = UTC
MEAN_ELEMENT_THEORY = SGP/SGP4

EPOCH          = 2026-03-26T05:36:17.406720
MEAN_MOTION    = 14.96880005
ECCENTRICITY   = .0024097
INCLINATION    = 87.3864
RA_OF_ASC_NODE = 160.8245
ARG_OF_PERICENTER = 92.1088
MEAN_ANOMALY   = 268.2903

EPHEMERIS_TYPE = 0
CLASSIFICATION_TYPE = U
NORAD_CAT_ID   = 54149
ELEMENT_SET_NO = 999
REV_AT_EPOCH   = 18640
BSTAR          = .21043E-3
MEAN_MOTION_DOT = .2455E-4
MEAN_MOTION_DDOT = 0

