ALOS-2                  
1 39766U 14029A   26085.89742536  .00001755  00000+0  24204-3 0  9994
2 39766  97.9185 184.2439 0001902 104.7492 255.3931 14.79438738639417
YAOGAN-29               
1 41038U 15069A   26085.86482319  .00000187  00000+0  29619-4 0  9995
2 41038  98.0125 114.3389 0000678   9.9869 350.1358 14.83013006558429
ASTRO-H (HITOMI)        
1 41337U 16012A   26085.68797876  .00002946  00000+0  17057-3 0  9990
2 41337  30.9987 246.8445 0009610 142.6618 217.4689 15.10108075554800
HXMT (HUIYAN)           
1 42758U 17034A   26085.89031159  .00005205  00000+0  26200-3 0  9992
2 42758  43.0144 281.0293 0032150 340.9800  18.9846 15.17677539485154
SAOCOM 1A               
1 43641U 18076A   26085.84068426  .00000379  00000+0  54208-4 0  9990
2 43641  97.8907 273.7712 0001487  84.5804 275.5579 14.82158822403905
H-2A R/B                
1 43682U 18084L   26085.54290737  .00019154  00000+0  44617-3 0  9996
2 43682  98.8711 306.5404 0023967 326.7333  33.2402 15.42046506408374
SAOCOM 1B               
1 46265U 20059A   26085.87191753  .00000853  00000+0  11376-3 0  9997
2 46265  97.8907 272.8998 0001507  87.2408 272.8977 14.82154707301298
CSS (TIANHE)            
1 48274U 21035A   26085.47667690  .00022078  00000+0  25348-3 0  9995
2 48274  41.4668 105.9518 0004375  27.8564 332.2509 15.61516360280239
COSMOS 2550             
1 48865U 21056A   26085.92775036 -.00000189  00000+0  72638-7 0  9996
2 48865  67.1433 348.7393 0008321 269.2428  90.7773 15.33832531266103
CZ-2C R/B               
1 52794U 22058K   26085.80010259  .00036120  00000+0  50425-3 0  9990
2 52794  50.1867 230.1901 0041479 274.0304  85.5926 15.55455273212795
CZ-2C R/B               
1 54039U 22132E   26085.91782219  .00052608  00000+0  56408-3 0  9997
2 54039  97.2962  89.7787 0018134  35.3831 324.8627 15.63457330193062
GSLV R/B                
1 54149U 22138AN  26085.23353480  .00002455  00000+0  21043-3 0  9996
2 54149  87.3864 160.8245 0024097  92.1088 268.2903 14.96880005186407
